CCSDS_OMM_VERS = 2.0
CREATION_DATE  = 
ORIGINATOR     = 

OBJECT_NAME    = UNKNOWN
OBJECT_ID      = 
CENTER_NAME    = EARTH
REF_FRAME      = TEME
TIME_SYSTEM    = UTC
MEAN_ELEMENT_THEORY = SGP/SGP4

EPOCH          = 2026-04-01T14:18:54.447264
MEAN_MOTION    = 12.12974868
ECCENTRICITY   = .03081092
INCLINATION    = 100.9919
RA_OF_ASC_NODE = 201.9496
ARG_OF_PERICENTER = 71.0850
MEAN_ANOMALY   = 292.3335

EPHEMERIS_TYPE = 0
CLASSIFICATION_TYPE = U
NORAD_CAT_ID   = 270137
ELEMENT_SET_NO = 999
REV_AT_EPOCH   = 28099
BSTAR          = .29223856E-3
MEAN_MOTION_DOT = -.2E-7
MEAN_MOTION_DDOT = 0

CCSDS_OMM_VERS = 2.0
CREATION_DATE  = 
ORIGINATOR     = 

OBJECT_NAME    = UNKNOWN
OBJECT_ID      = 
CENTER_NAME    = EARTH
REF_FRAME      = TEME
TIME_SYSTEM    = UTC
MEAN_ELEMENT_THEORY = SGP/SGP4

EPOCH          = 2026-04-02T11:36:45.091872
MEAN_MOTION    = 14.93771117
ECCENTRICITY   = .00093296
INCLINATION    = 97.8117
RA_OF_ASC_NODE = 183.5110
ARG_OF_PERICENTER = 2.5917
MEAN_ANOMALY   = 357.5350

EPHEMERIS_TYPE = 0
CLASSIFICATION_TYPE = U
NORAD_CAT_ID   = 270138
ELEMENT_SET_NO = 999
REV_AT_EPOCH   = 34373
BSTAR          = .47347855E-3
MEAN_MOTION_DOT = .4966E-4
MEAN_MOTION_DDOT = 0

CCSDS_OMM_VERS = 2.0
CREATION_DATE  = 
ORIGINATOR     = 

OBJECT_NAME    = UNKNOWN
OBJECT_ID      = 
CENTER_NAME    = EARTH
REF_FRAME      = TEME
TIME_SYSTEM    = UTC
MEAN_ELEMENT_THEORY = SGP/SGP4

EPOCH          = 2026-04-02T22:43:12.550656
MEAN_MOTION    = 12.51530506
ECCENTRICITY   = .07869754
INCLINATION    = 99.4288
RA_OF_ASC_NODE = 171.2416
ARG_OF_PERICENTER = 195.8736
MEAN_ANOMALY   = 161.6328

EPHEMERIS_TYPE = 0
CLASSIFICATION_TYPE = U
NORAD_CAT_ID   = 270140
ELEMENT_SET_NO = 999
REV_AT_EPOCH   = 28899
BSTAR          = .57073209E-2
MEAN_MOTION_DOT = .276E-4
MEAN_MOTION_DDOT = 0

CCSDS_OMM_VERS = 2.0
CREATION_DATE  = 
ORIGINATOR     = 

OBJECT_NAME    = UNKNOWN
OBJECT_ID      = 
CENTER_NAME    = EARTH
REF_FRAME      = TEME
TIME_SYSTEM    = UTC
MEAN_ELEMENT_THEORY = SGP/SGP4

EPOCH          = 2026-04-02T08:36:29.774016
MEAN_MOTION    = 12.42208538
ECCENTRICITY   = .00266732
INCLINATION    = 73.6084
RA_OF_ASC_NODE = 132.0648
ARG_OF_PERICENTER = 314.5450
MEAN_ANOMALY   = 45.3416

EPHEMERIS_TYPE = 0
CLASSIFICATION_TYPE = U
NORAD_CAT_ID   = 270141
ELEMENT_SET_NO = 999
REV_AT_EPOCH   = 28783
BSTAR          = .80807789E-3
MEAN_MOTION_DOT = .94E-6
MEAN_MOTION_DDOT = 0

CCSDS_OMM_VERS = 2.0
CREATION_DATE  = 
ORIGINATOR     = 

OBJECT_NAME    = UNKNOWN
OBJECT_ID      = 
CENTER_NAME    = EARTH
REF_FRAME      = TEME
TIME_SYSTEM    = UTC
MEAN_ELEMENT_THEORY = SGP/SGP4

EPOCH          = 2026-03-15T08:52:03.723456
MEAN_MOTION    = 13.68253143
ECCENTRICITY   = .0043461
INCLINATION    = 99.2594
RA_OF_ASC_NODE = 301.9991
ARG_OF_PERICENTER = 338.9803
MEAN_ANOMALY   = 20.9556

EPHEMERIS_TYPE = 0
CLASSIFICATION_TYPE = U
NORAD_CAT_ID   = 270143
ELEMENT_SET_NO = 999
REV_AT_EPOCH   = 31449
BSTAR          = .31266259E-3
MEAN_MOTION_DOT = .226E-5
MEAN_MOTION_DDOT = 0

CCSDS_OMM_VERS = 2.0
CREATION_DATE  = 
ORIGINATOR     = 

OBJECT_NAME    = UNKNOWN
OBJECT_ID      = 
CENTER_NAME    = EARTH
REF_FRAME      = TEME
TIME_SYSTEM    = UTC
MEAN_ELEMENT_THEORY = SGP/SGP4

EPOCH          = 2026-03-31T21:47:25.945152
MEAN_MOTION    = 11.61623313
ECCENTRICITY   = .06063644
INCLINATION    = 102.4524
RA_OF_ASC_NODE = 165.8694
ARG_OF_PERICENTER = 158.8483
MEAN_ANOMALY   = 203.8794

EPHEMERIS_TYPE = 0
CLASSIFICATION_TYPE = U
NORAD_CAT_ID   = 270147
ELEMENT_SET_NO = 999
REV_AT_EPOCH   = 3108
BSTAR          = .28672483E-2
MEAN_MOTION_DOT = .195E-5
MEAN_MOTION_DDOT = 0

CCSDS_OMM_VERS = 2.0
CREATION_DATE  = 
ORIGINATOR     = 

OBJECT_NAME    = UNKNOWN
OBJECT_ID      = 
CENTER_NAME    = EARTH
REF_FRAME      = TEME
TIME_SYSTEM    = UTC
MEAN_ELEMENT_THEORY = SGP/SGP4

EPOCH          = 2026-03-29T12:05:24.724032
MEAN_MOTION    = 13.06146227
ECCENTRICITY   = .0029443
INCLINATION    = 90.3143
RA_OF_ASC_NODE = 13.4707
ARG_OF_PERICENTER = 297.0434
MEAN_ANOMALY   = 62.7688

EPHEMERIS_TYPE = 0
CLASSIFICATION_TYPE = U
NORAD_CAT_ID   = 270149
ELEMENT_SET_NO = 999
REV_AT_EPOCH   = 30096
BSTAR          = -.25488687E-3
MEAN_MOTION_DOT = -.77E-6
MEAN_MOTION_DDOT = 0

CCSDS_OMM_VERS = 2.0
CREATION_DATE  = 
ORIGINATOR     = 

OBJECT_NAME    = UNKNOWN
OBJECT_ID      = 
CENTER_NAME    = EARTH
REF_FRAME      = TEME
TIME_SYSTEM    = UTC
MEAN_ELEMENT_THEORY = SGP/SGP4

EPOCH          = 2026-04-01T06:54:48.592224
MEAN_MOTION    = 12.98983886
ECCENTRICITY   = .00367286
INCLINATION    = 90.3151
RA_OF_ASC_NODE = 41.3235
ARG_OF_PERICENTER = 185.9689
MEAN_ANOMALY   = 174.1000

EPHEMERIS_TYPE = 0
CLASSIFICATION_TYPE = U
NORAD_CAT_ID   = 270152
ELEMENT_SET_NO = 999
REV_AT_EPOCH   = 30062
BSTAR          = .83404096E-3
MEAN_MOTION_DOT = .255E-5
MEAN_MOTION_DDOT = 0

CCSDS_OMM_VERS = 2.0
CREATION_DATE  = 
ORIGINATOR     = 

OBJECT_NAME    = UNKNOWN
OBJECT_ID      = 
CENTER_NAME    = EARTH
REF_FRAME      = TEME
TIME_SYSTEM    = UTC
MEAN_ELEMENT_THEORY = SGP/SGP4

EPOCH          = 2026-03-24T02:00:12.626208
MEAN_MOTION    = 12.96290952
ECCENTRICITY   = .00326639
INCLINATION    = 90.2516
RA_OF_ASC_NODE = 11.1644
ARG_OF_PERICENTER = 18.7881
MEAN_ANOMALY   = 341.4437

EPHEMERIS_TYPE = 0
CLASSIFICATION_TYPE = U
NORAD_CAT_ID   = 270154
ELEMENT_SET_NO = 999
REV_AT_EPOCH   = 29871
BSTAR          = .17935123E-2
MEAN_MOTION_DOT = .52E-5
MEAN_MOTION_DDOT = 0

CCSDS_OMM_VERS = 2.0
CREATION_DATE  = 
ORIGINATOR     = 

OBJECT_NAME    = UNKNOWN
OBJECT_ID      = 
CENTER_NAME    = EARTH
REF_FRAME      = TEME
TIME_SYSTEM    = UTC
MEAN_ELEMENT_THEORY = SGP/SGP4

EPOCH          = 2026-03-30T07:51:50.620608
MEAN_MOTION    = 12.55014212
ECCENTRICITY   = .00647136
INCLINATION    = 101.9195
RA_OF_ASC_NODE = 313.4759
ARG_OF_PERICENTER = 212.6276
MEAN_ANOMALY   = 147.0790

EPHEMERIS_TYPE = 0
CLASSIFICATION_TYPE = U
NORAD_CAT_ID   = 270155
ELEMENT_SET_NO = 999
REV_AT_EPOCH   = 29025
BSTAR          = .30471503E-2
MEAN_MOTION_DOT = .453E-5
MEAN_MOTION_DDOT = 0

CCSDS_OMM_VERS = 2.0
CREATION_DATE  = 
ORIGINATOR     = 

OBJECT_NAME    = UNKNOWN
OBJECT_ID      = 
CENTER_NAME    = EARTH
REF_FRAME      = TEME
TIME_SYSTEM    = UTC
MEAN_ELEMENT_THEORY = SGP/SGP4

EPOCH          = 2026-04-01T12:08:40.399296
MEAN_MOTION    = 13.04398244
ECCENTRICITY   = .00254623
INCLINATION    = 90.2090
RA_OF_ASC_NODE = 16.5789
ARG_OF_PERICENTER = 16.6376
MEAN_ANOMALY   = 343.5579

EPHEMERIS_TYPE = 0
CLASSIFICATION_TYPE = U
NORAD_CAT_ID   = 270156
ELEMENT_SET_NO = 999
REV_AT_EPOCH   = 30058
BSTAR          = -.18426593E-3
MEAN_MOTION_DOT = -.51E-6
MEAN_MOTION_DDOT = 0

CCSDS_OMM_VERS = 2.0
CREATION_DATE  = 
ORIGINATOR     = 

OBJECT_NAME    = UNKNOWN
OBJECT_ID      = 
CENTER_NAME    = EARTH
REF_FRAME      = TEME
TIME_SYSTEM    = UTC
MEAN_ELEMENT_THEORY = SGP/SGP4

EPOCH          = 2026-04-02T09:10:46.643520
MEAN_MOTION    = 12.76153096
ECCENTRICITY   = .09746345
INCLINATION    = 65.8281
RA_OF_ASC_NODE = 335.8125
ARG_OF_PERICENTER = 184.5879
MEAN_ANOMALY   = 174.5680

EPHEMERIS_TYPE = 0
CLASSIFICATION_TYPE = U
NORAD_CAT_ID   = 270157
ELEMENT_SET_NO = 999
REV_AT_EPOCH   = 29469
BSTAR          = .3639066E-3
MEAN_MOTION_DOT = .547E-5
MEAN_MOTION_DDOT = 0

CCSDS_OMM_VERS = 2.0
CREATION_DATE  = 
ORIGINATOR     = 

OBJECT_NAME    = UNKNOWN
OBJECT_ID      = 
CENTER_NAME    = EARTH
REF_FRAME      = TEME
TIME_SYSTEM    = UTC
MEAN_ELEMENT_THEORY = SGP/SGP4

EPOCH          = 2026-04-02T14:25:42.001248
MEAN_MOTION    = 12.21571228
ECCENTRICITY   = .01367394
INCLINATION    = 74.0027
RA_OF_ASC_NODE = 61.9915
ARG_OF_PERICENTER = 166.6260
MEAN_ANOMALY   = 193.8458

EPHEMERIS_TYPE = 0
CLASSIFICATION_TYPE = U
NORAD_CAT_ID   = 270158
ELEMENT_SET_NO = 999
REV_AT_EPOCH   = 28321
BSTAR          = .29460954E-3
MEAN_MOTION_DOT = .18E-6
MEAN_MOTION_DDOT = 0

CCSDS_OMM_VERS = 2.0
CREATION_DATE  = 
ORIGINATOR     = 

OBJECT_NAME    = UNKNOWN
OBJECT_ID      = 
CENTER_NAME    = EARTH
REF_FRAME      = TEME
TIME_SYSTEM    = UTC
MEAN_ELEMENT_THEORY = SGP/SGP4

EPOCH          = 2026-03-29T08:58:08.684832
MEAN_MOTION    = 12.81676950
ECCENTRICITY   = .02699609
INCLINATION    = 62.9623
RA_OF_ASC_NODE = 327.6042
ARG_OF_PERICENTER = 227.9248
MEAN_ANOMALY   = 129.8497

EPHEMERIS_TYPE = 0
CLASSIFICATION_TYPE = U
NORAD_CAT_ID   = 270159
ELEMENT_SET_NO = 999
REV_AT_EPOCH   = 29647
BSTAR          = .63133117E-3
MEAN_MOTION_DOT = .94E-6
MEAN_MOTION_DDOT = 0

CCSDS_OMM_VERS = 2.0
CREATION_DATE  = 
ORIGINATOR     = 

OBJECT_NAME    = UNKNOWN
OBJECT_ID      = 
CENTER_NAME    = EARTH
REF_FRAME      = TEME
TIME_SYSTEM    = UTC
MEAN_ELEMENT_THEORY = SGP/SGP4

EPOCH          = 2026-04-01T21:00:40.360032
MEAN_MOTION    = 12.16181628
ECCENTRICITY   = .08827886
INCLINATION    = 83.2685
RA_OF_ASC_NODE = 321.8669
ARG_OF_PERICENTER = 32.5012
MEAN_ANOMALY   = 332.7382

EPHEMERIS_TYPE = 0
CLASSIFICATION_TYPE = U
NORAD_CAT_ID   = 270160
ELEMENT_SET_NO = 999
REV_AT_EPOCH   = 28041
BSTAR          = .39325705E-2
MEAN_MOTION_DOT = .1341E-4
MEAN_MOTION_DDOT = 0

CCSDS_OMM_VERS = 2.0
CREATION_DATE  = 
ORIGINATOR     = 

OBJECT_NAME    = UNKNOWN
OBJECT_ID      = 
CENTER_NAME    = EARTH
REF_FRAME      = TEME
TIME_SYSTEM    = UTC
MEAN_ELEMENT_THEORY = SGP/SGP4

EPOCH          = 2026-04-02T04:31:03.659520
MEAN_MOTION    = 12.76630761
ECCENTRICITY   = .0056359
INCLINATION    = 101.1134
RA_OF_ASC_NODE = 77.4113
ARG_OF_PERICENTER = 40.2448
MEAN_ANOMALY   = 320.2792

EPHEMERIS_TYPE = 0
CLASSIFICATION_TYPE = U
NORAD_CAT_ID   = 270161
ELEMENT_SET_NO = 999
REV_AT_EPOCH   = 29527
BSTAR          = .23123349E-2
MEAN_MOTION_DOT = .462E-5
MEAN_MOTION_DDOT = 0

